algorithm,apogee,argOfPerigee,bStar,classificationMarking,elset_created_at,elset_created_by,dataMode,eccentricity,idElset,idOnOrbit,inclination,line1,line2,meanAnomaly,meanMotion,meanMotionDDot,meanMotionDot,origNetwork,perigee,period,raan,revNo,satNo,semiMajorAxis,source,__START_AT,__END_AT,COUNTRY,LAUNCH,LAUNCH_NUM,LAUNCH_PIECE,NORAD_CAT_ID,OBJECT_ID,OBJECT_NAME,OBJECT_NUMBER,OBJECT_TYPE,RCS_SIZE,SATNAME,SITE,satcat_current_fetch_date
SGP4,6937.998,272.9716,-1.0057E-6,U,2024-02-01T05:05:15.553Z,system.ob-ingest,REAL,1.146E-4,217be1b4-d665-46cf-8ef6-a21777bcbe84,57258,43.0024,1 57258U 23094AS  24031.88724660 -.00000217 +00000+0 -10057-5 0 99994,2 57258  43.0024 229.2484 0001146 272.9716  87.0995 15.02540370031772,87.0995,15.0254037,0.0,-2.17E-6,OPS1,6936.408,95.838,229.2484,3177,57258,6937.203,18th SPCS,2024-01-31T21:17:38.106240Z,2024-02-01T13:14:55.129344Z,US,2023-07-07,94,AS,57258,2023-094AS,STARLINK-5476,57258,PAYLOAD,LARGE,STARLINK-5476,AFWTR,2024-08-21
SGP4,6937.894,250.4531,0.0011377,U,2024-01-31T23:05:17.857Z,system.ob-ingest,REAL,1.038E-4,5417f5ed-f0fc-473a-ae24-1110f5afd388,57445,43.0021,1 57445U 23105R   24031.60830809 +.00015204 +00000+0 +11377-2 0 99991,2 57445  43.0021 114.9791 0001038 250.4531 109.6199 15.02549980029864,109.6199,15.0254998,0.0,1.5204E-4,OPS1,6936.453,95.837,114.9791,2986,57445,6937.174,18th SPCS,2024-01-31T14:35:57.818976Z,2024-02-01T09:44:42.128160Z,US,2023-07-24,105,R,57445,2023-105R,STARLINK-30215,57445,PAYLOAD,LARGE,STARLINK-30215,AFETR,2024-08-21
SGP4,6937.864,242.5651,1.8493E-4,U,2024-01-31T15:05:15.089Z,system.ob-ingest,REAL,9.68E-5,015339c2-ead1-4c74-a917-8fcb92764591,57819,43.0017,1 57819U 23138M   24031.51915768 +.00002296 +00000+0 +18493-3 0 99994,2 57819  43.0017  90.0543 0000968 242.5651 117.5093 15.02543970023092,117.5093,15.0254397,0.0,2.296E-5,OPS1,6936.52,95.837,90.0543,2309,57819,6937.192,18th SPCS,2024-01-31T12:27:35.223552Z,2024-02-01T02:49:09.118560Z,US,2023-09-09,138,M,57819,2023-138M,STARLINK-30390,57819,PAYLOAD,LARGE,STARLINK-30390,AFETR,2024-08-21
SGP4,6888.786,92.6731,3.3432E-5,U,2024-01-31T23:05:18.075Z,system.ob-ingest,REAL,1.283E-4,4698a4e5-9f65-4250-8e6e-07322123a3ac,57954,53.0541,1 57954U 23148V   24031.84031194 +.00000384 +00000+0 +33432-4 0 99990,2 57954  53.0541 336.3615 0001283  92.6731 267.4411 15.18701002020988,267.4411,15.18701002,0.0,3.84E-6,OPS1,6887.019,94.818,336.3615,2098,57954,6887.902,18th SPCS,2024-01-31T20:10:02.951616Z,2024-02-01T02:29:05.615808Z,US,2023-09-25,148,V,57954,2023-148V,STARLINK-30703,57954,PAYLOAD,LARGE,STARLINK-30703,AFWTR,2024-08-21
SGP4,6899.709,286.5034,7.0485E-4,U,2024-01-31T23:05:17.601Z,system.ob-ingest,REAL,1.526E-4,9230ef89-448f-4ff0-99c2-e2f5b656767e,57973,43.0022,1 57973U 23151K   24031.81017641 +.00013252 +00000+0 +70485-3 0 99999,2 57973  43.0022 193.8493 0001526 286.5034  73.5645 15.15151252020171,73.5645,15.15151252,0.0,1.3252E-4,OPS1,6897.604,95.04,193.8493,2017,57973,6898.656,18th SPCS,2024-01-31T19:26:39.241824Z,2024-02-01T11:15:57.862080Z,US,2023-09-30,151,K,57973,2023-151K,STARLINK-30502,57973,PAYLOAD,LARGE,STARLINK-30502,AFETR,2024-08-21
SGP4,6908.888,266.1103,-0.13139,U,2024-01-31T23:05:17.617Z,system.ob-ingest,REAL,1.335E-4,3111de90-b8b1-47b8-aca1-32ef5a3ac1d7,57975,43.001,1 57975U 23151M   24031.91667824 -.02065239 +00000+0 -13139+1 0 99992,2 57975  43.0010 191.3247 0001335 266.1103  45.9886 15.12089475020218,45.9886,15.12089475,0.0,-0.02065239,OPS1,6907.044,95.232,191.3247,2021,57975,6907.966,18th SPCS,2024-01-31T22:00:00.999936Z,2024-02-01T06:00:00.999648Z,US,2023-09-30,151,M,57975,2023-151M,STARLINK-30503,57975,PAYLOAD,LARGE,STARLINK-30503,AFETR,2024-08-21
SGP4,6889.265,95.8702,0.0010536,U,2024-01-31T23:05:17.763Z,system.ob-ingest,REAL,2.045E-4,20cc7bb1-df6b-47fc-9a8f-d294d18fe1bf,58037,53.0566,1 58037U 23156K   24031.32553389 +.00021887 +00000+0 +10536-2 0 99999,2 58037  53.0566  48.2318 0002045  95.8702 264.2525 15.18716376018671,264.2525,15.18716376,0.0,2.1887E-4,OPS1,6886.447,94.817,48.2318,1867,58037,6887.856,18th SPCS,2024-01-31T07:48:46.128096Z,2024-02-01T10:39:44.250624Z,US,2023-10-09,156,K,58037,2023-156K,STARLINK-30533,58037,PAYLOAD,LARGE,STARLINK-30533,AFWTR,2024-08-21
SGP4,6888.976,107.8539,-2.2652E-4,U,2024-01-31T15:05:14.966Z,system.ob-ingest,REAL,1.683E-4,887e44ac-7784-433e-892a-c7c39ff78c97,58103,53.0574,1 58103U 23161G   24031.49340950 -.00005077 +00000+0 -22652-3 0 99993,2 58103  53.0574 127.5995 0001683 107.8539 252.2639 15.18729332016773,252.2639,15.18729332,0.0,-5.077E-5,OPS1,6886.658,94.816,127.5995,1677,58103,6887.817,18th SPCS,2024-01-31T11:50:30.580800Z,2024-02-01T11:31:58.629216Z,US,2023-10-21,161,G,58103,2023-161G,STARLINK-30589,58103,PAYLOAD,LARGE,STARLINK-30589,AFWTR,2024-08-21
SGP4,6937.926,235.2803,0.001093,U,2024-02-01T05:05:15.592Z,system.ob-ingest,REAL,1.005E-4,324fd007-a709-4b28-bc22-83581231be2c,58132,43.0023,1 58132U 23162Q   24031.90585198 +.00014590 +00000+0 +10930-2 0 99990,2 58132  43.0023 345.1500 0001005 235.2803 124.7944 15.02531914016807,124.7944,15.02531914,0.0,1.459E-4,OPS1,6936.532,95.838,345.15,1680,58132,6937.229,18th SPCS,2024-01-31T21:44:25.611072Z,2024-02-01T00:55:52.985280Z,US,2023-10-22,162,Q,58132,2023-162Q,STARLINK-30770,58132,PAYLOAD,LARGE,STARLINK-30770,AFETR,2024-08-21
SGP4,6932.03,253.3356,7.2955E-5,U,2024-02-01T05:05:15.642Z,system.ob-ingest,REAL,1.172E-4,189eeb67-e024-483a-97a4-39f77b653111,58177,43.002,1 58177U 23167C   24031.92621966 +.00000831 +00000+0 +72955-4 0 99990,2 58177  43.0020 357.7442 0001172 253.3356 106.7358 15.04487149015468,106.7358,15.04487149,0.0,8.31E-6,OPS1,6930.405,95.714,357.7442,1546,58177,6931.217,18th SPCS,2024-01-31T22:13:45.378624Z,2024-02-01T03:00:34.005312Z,US,2023-10-30,167,C,58177,2023-167C,STARLINK-30791,58177,PAYLOAD,LARGE,STARLINK-30791,AFETR,2024-08-21
SGP4,6937.941,299.8314,6.8065E-4,U,2024-01-31T23:05:17.735Z,system.ob-ingest,REAL,1.083E-4,30b8ac97-c3a2-4919-a153-4a1110068ac3,58217,43.0009,1 58217U 23170M   24031.55176540 +.00009005 +00000+0 +68065-3 0 99999,2 58217  43.0009  49.5886 0001083 299.8314  60.2420 15.02544852014734,60.242,15.02544852,0.0,9.005E-5,OPS1,6936.438,95.837,49.5886,1473,58217,6937.189,18th SPCS,2024-01-31T13:14:32.530560Z,2024-02-01T00:24:38.793024Z,US,2023-11-03,170,M,58217,2023-170M,STARLINK-30818,58217,PAYLOAD,LARGE,STARLINK-30818,AFETR,2024-08-21
SGP4,6897.04,274.4085,7.6123E-4,U,2024-02-01T05:05:15.553Z,system.ob-ingest,REAL,1.279E-4,28c07c32-2836-43d4-b3ad-cf9703297503,58230,42.9983,1 58230U 23171A   24031.69466782 +.00014676 +00000+0 +76123-3 0 99994,2 58230  42.9983 140.3828 0001279 274.4085  85.6616 15.15974707014182,85.6616,15.15974707,0.0,1.4676E-4,OPS1,6895.276,94.988,140.3828,1418,58230,6896.158,18th SPCS,2024-01-31T16:40:19.299648Z,2024-02-01T10:03:59.727456Z,US,2023-11-08,171,A,58230,2023-171A,STARLINK-30861,58230,PAYLOAD,LARGE,STARLINK-30861,AFETR,2024-08-21
SGP4,6889.217,123.3857,7.3269E-5,U,2024-01-31T23:05:17.952Z,system.ob-ingest,REAL,1.946E-4,e3a37473-03dc-4eb9-9b5a-ad5a1bf5f026,58378,53.0556,1 58378U 23178E   24031.77715294 +.00001221 +00000+0 +73269-4 0 99999,2 58378  53.0556 326.3232 0001946 123.3857 236.7324 15.18709604012356,236.7324,15.18709604,0.0,1.221E-5,OPS1,6886.536,94.817,326.3232,1235,58378,6887.876,18th SPCS,2024-01-31T18:39:06.014016Z,2024-02-01T00:58:09.065280Z,US,2023-11-20,178,E,58378,2023-178E,STARLINK-30920,58378,PAYLOAD,LARGE,STARLINK-30920,AFWTR,2024-08-21
SGP4,6889.127,79.0831,-4.7096E-5,U,2024-01-31T23:05:17.697Z,system.ob-ingest,REAL,1.756E-4,40d81af6-2a32-4340-b572-1def30a70409,58392,53.0534,1 58392U 23178U   24031.80652873 -.00001307 +00000+0 -47096-4 0 99998,2 58392  53.0534 325.7958 0001756  79.0831 281.0361 15.18695944012360,281.0361,15.18695944,0.0,-1.307E-5,OPS1,6886.708,94.818,325.7958,1236,58392,6887.918,18th SPCS,2024-01-31T19:21:24.082272Z,2024-02-01T03:15:13.362048Z,US,2023-11-20,178,U,58392,2023-178U,STARLINK-30937,58392,PAYLOAD,LARGE,STARLINK-30937,AFWTR,2024-08-21
SGP4,6867.288,233.7491,0.0024246,U,2024-02-01T05:05:15.727Z,system.ob-ingest,REAL,1.552E-4,68b7cb00-5d78-4100-b2cc-6908924f3c76,58512,42.9988,1 58512U 23191E   24031.90160242 +.00063696 +00000+0 +24246-2 0 99999,2 58512  42.9988 326.6515 0001552 233.7491 126.3216 15.25899623009845,126.3216,15.25899623,0.0,6.3696E-4,OPS1,6865.157,94.371,326.6515,984,58512,6866.222,18th SPCS,2024-01-31T21:38:18.449088Z,2024-02-01T02:21:05.025312Z,US,2023-12-07,191,E,58512,2023-191E,STARLINK-30982,58512,PAYLOAD,LARGE,STARLINK-30982,AFETR,2024-08-21
SGP4,6867.102,235.3282,0.0017461,U,2024-02-01T05:05:15.743Z,system.ob-ingest,REAL,1.351E-4,bbad6cb7-45dc-4689-9304-f45771fc05bf,58530,43.0002,1 58530U 23191Y   24031.87220265 +.00045709 +00000+0 +17461-2 0 99993,2 58530  43.0002 326.4243 0001351 235.3282 124.7442 15.25915748009865,124.7442,15.25915748,0.0,4.5709E-4,OPS1,6865.246,94.37,326.4243,986,58530,6866.174,18th SPCS,2024-01-31T20:55:58.308960Z,2024-02-01T01:38:44.813472Z,US,2023-12-07,191,Y,58530,2023-191Y,STARLINK-31009,58530,PAYLOAD,LARGE,STARLINK-31009,AFETR,2024-08-21
SGP4,6867.081,234.9634,-3.3345E-5,U,2024-01-31T23:05:18.173Z,system.ob-ingest,REAL,1.291E-4,156bc02e-2246-4eb9-a726-f9d173ef15f4,58688,43.0002,1 58688U 23211X   24031.55766865 -.00001129 +00000+0 -33345-4 0 99997,2 58688  43.0002  95.9844 0001291 234.9634 125.1096 15.25908760005078,125.1096,15.2590876,0.0,-1.129E-5,OPS1,6865.309,94.37,95.9844,507,58688,6866.195,18th SPCS,2024-01-31T13:23:02.571360Z,2024-02-01T12:56:56.215392Z,US,2023-12-29,211,X,58688,2023-211X,STARLINK-31139,58688,PAYLOAD,LARGE,STARLINK-31139,AFETR,2024-08-21
